EUTELSAT 115 WEST B     
1 40425U 15010B   22073.36830278 -.00000028  00000+0  00000+0 0  9992
2 40425   0.0422   6.8477 0000172  41.2476 141.5205  1.00271854 25802
MMS 1                   
1 40482U 15011A   22067.12500000 -.00002004  00000+0  00000+0 0  9996
2 40482  33.0277 109.4574 8570985  46.2931 172.1023  0.28450470 13010
MMS 2                   
1 40483U 15011B   22067.12500000 -.00002004  00000+0  00000+0 0  9997
2 40483  33.0259 109.4605 8570419  46.2990 172.0703  0.28450433 13072
MMS 3                   
1 40484U 15011C   22067.12500000 -.00002003  00000+0  00000+0 0  9997
2 40484  33.0310 109.4378 8569805  46.3068 172.0762  0.28449431 12757
MMS 4                   
1 40485U 15011D   22067.12500000 -.00002003  00000+0  00000+0 0  9998
2 40485  33.0281 109.4599 8569571  46.2911 172.0937  0.28450434 12968
EXPRESS-AM7             
1 40505U 15012A   22073.79187713  .00000147  00000+0  00000+0 0  9990
2 40505   0.0268 155.1470 0003382 183.6760 158.6208  1.00269521 25410
NAVSTAR 73 (USA 260)    
1 40534U 15013A   22072.99304068  .00000043  00000+0  00000+0 0  9993
2 40534  53.7656 268.6473 0068388  20.0363 340.2543  2.00558372 50618
KOMPSAT-3A              
1 40536U 15014A   22073.84172729  .00003965  00000+0  23288-3 0  9991
2 40536  97.5652  17.4861 0002975  77.2089   7.6218 15.12288243384743
GSAT0203 (GALILEO 7)    
1 40544U 15017A   22073.00549654 -.00000073  00000+0  00000+0 0  9997
2 40544  56.7582  23.9771 0004135 283.6701  76.2676  1.70475792 42676
GSAT0204 (GALILEO 8)    
1 40545U 15017B   22073.84471401 -.00000071  00000+0  00000+0 0  9992
2 40545  56.7639  23.9663 0003314 273.7074  86.2377  1.70475614 43348
IRNSS-1D                
1 40547U 15018A   22073.45674282 -.00000267  00000+0  00000+0 0  9991
2 40547  28.7663 266.7236 0020793 176.7186   4.7385  1.00269817 25393
BEIDOU 17               
1 40549U 15019A   22073.14326117 -.00000138  00000+0  00000+0 0  9998
2 40549  52.0471 313.8615 0035358 189.2073 175.1493  1.00262536 25488
GONETS-M 11             
1 40552U 15020A   22073.71782994  .00000008  00000+0 -17046-4 0  9995
2 40552  82.4822 280.1279 0016668 153.5788 206.6145 12.42887070315548
GONETS-M 12             
1 40553U 15020B   22073.69209283  .00000010  00000+0  90848-6 0  9993
2 40553  82.4855 280.8284 0015154 137.6083 222.6167 12.42880492315530
GONETS-M 13             
1 40554U 15020C   22073.74327973  .00000000  00000+0 -71952-4 0  9990
2 40554  82.4817 279.9092 0013790 122.4524 237.7892 12.42896681315552
COSMOS 2504             
1 40555U 15020D   22073.83906453  .00000176  00000+0  58728-4 0  9996
2 40555  82.5222 351.3910 0615642 175.3175 185.4123 13.59511117338728
THOR 7                  
1 40613U 15022A   22073.78376584 -.00000012  00000+0  00000+0 0  9998
2 40613   0.0092 157.0240 0002761 191.0261 105.8039  1.00272359 25217
TURKMENALEM52E/MONACOSAT
1 40617U 15023A   22073.77480053  .00000100  00000+0  00000+0 0  9996
2 40617   0.0123 130.5083 0002412 216.6211 156.1608  1.00271159 25240
DIRECTV 15              
1 40663U 15026A   22073.63652493 -.00000105  00000+0  00000+0 0  9990
2 40663   0.0241 173.5367 0000858 232.4969 252.4842  1.00266924 24863
SKY MEXICO-1            
1 40664U 15026B   22073.55284028 -.00000238  00000+0  00000+0 0  9994
2 40664   0.0176 254.7241 0002450 106.0921 291.5508  1.00273882 24930
SENTINEL-2A             
1 40697U 15028A   22073.78797828  .00000103  00000+0  55838-4 0  9998
2 40697  98.5665 149.9041 0001258 108.4593 251.6720 14.30818886351314
COSMOS 2506             
1 40699U 15029A   22073.83250223 -.00000005  00000+0  95076-5 0  9991
2 40699  98.2701 133.0544 0007580 294.2449  65.7921 14.53437135356898
GAOFEN 8                
1 40701U 15030A   22073.80543309  .00008883  00000+0  37540-3 0  9995
2 40701  97.5439 207.7501 0005603  80.3432  56.4736 15.23461385373975
DMC3-FM1                
1 40715U 15032A   22073.81091104  .00000024  00000+0  95565-5 0  9996
2 40715  97.8606 322.4192 0007755 106.6137 253.5939 14.81949193359277
DMC3-FM2                
1 40716U 15032B   22073.76607642  .00000274  00000+0  41200-4 0  9994
2 40716  97.8648 322.9703 0009872 108.3736 251.8560 14.81922866359272
DMC3-FM3                
1 40717U 15032C   22073.78764429  .00000954  00000+0  12685-3 0  9993
2 40717  97.8682 323.8673 0011240 106.4538 253.7914 14.81973086359272
CARBONITE 1 (CBNT-1)    
1 40718U 15032D   22073.77959510  .00000865  00000+0  13501-3 0  9999
2 40718  97.7524 302.1785 0015750 325.6453  34.3753 14.75187874359462
NAVSTAR 74 (USA 262)    
1 40730U 15033A   22073.15639510 -.00000058  00000+0  00000+0 0  9992
2 40730  55.2593 330.5152 0073479   5.4905 354.6358  2.00557009 48786
METEOSAT-11 (MSG-4)     
1 40732U 15034A   22073.78402750  .00000002  00000+0  00000+0 0  9996
2 40732   0.1879   1.1972 0001928  72.2047  22.0720  1.00283384 24430
STAR ONE C4             
1 40733U 15034B   22073.76981095 -.00000268  00000+0  00000+0 0  9994
2 40733   0.0391  49.0211 0003146 310.8627  19.5888  1.00272614 24424
WGS F7 (USA 263)        
1 40746U 15036A   22073.81879456  .00000014  00000+0  00000+0 0  9991
2 40746   0.0034 181.4261 0001112 191.0608 269.6627  1.00271968 24269
BEIDOU 18               
1 40748U 15037A   22073.72517341 -.00000092  00000+0  00000+0 0  9993
2 40748  55.8924 354.9430 0005480 357.2460  16.0261  1.86233188 45151
BEIDOU 19               
1 40749U 15037B   22073.35568184 -.00000094  00000+0  00000+0 0  9996
2 40749  55.8955 354.9457 0006851 329.7894 290.6679  1.86232129 45138
INTELSAT 34 (IS-34)     
1 40874U 15039A   22073.51671164 -.00000289  00000+0  00000+0 0  9994
2 40874   0.0420 306.4014 0000661 287.9447  68.2713  1.00272989 24026
EUTELSAT 8 WEST B       
1 40875U 15039B   22073.78228314 -.00000069  00000+0  00000+0 0  9995
2 40875   0.0668   8.0603 0005025  12.4457  65.4754  1.00271643 24065
YAOGAN 27               
1 40878U 15040A   22073.88662176 -.00000020  00000+0  58662-4 0  9998
2 40878 100.1430 109.6578 0008419 196.6421 163.4372 13.15976543314597
GSAT-6                  
1 40880U 15041A   22073.80033729 -.00000164  00000+0  00000+0 0  9997
2 40880   0.0711 278.8393 0000752  97.8588 166.3284  1.00273275 24014
INMARSAT 5-F3           
1 40882U 15042A   22073.33868807  .00000047  00000+0  00000+0 0  9990
2 40882   0.0182 154.3870 0000191 242.1442  76.9296  1.00272406 23964
MUOS-4                  
1 40887U 15044A   22073.76924328 -.00000095  00000+0  00000+0 0  9999
2 40887   2.5559   4.0297 0058461 358.6168 161.6637  1.00272377 23967
GSAT0205 (GALILEO 9)    
1 40889U 15045A   22073.61188067  .00000051  00000+0  00000+0 0  9999
2 40889  55.6875 264.5798 0006063  28.9098 331.1363  1.70473515 40499
GSAT0206 (GALILEO 10)   
1 40890U 15045B   22072.07290633  .00000050  00000+0  00000+0 0  9992
2 40890  55.6873 264.6183 0004227  26.4046 333.6318  1.70473561 40492
TJS-1                   
1 40892U 15046A   22073.81478252 -.00000160  00000+0  00000+0 0  9996
2 40892   0.0293  70.2928 0006217 311.5792 238.8216  1.00270439 23967
GAOFEN 9-01             
1 40894U 15047A   22073.84719931  .00000969  00000+0  14552-3 0  9991
2 40894  97.8261 147.1657 0033998 154.5513 205.7353 14.76371034350220
EXPRESS-AM8             
1 40895U 15048A   22073.92464870 -.00000115  00000+0  00000+0 0  9994
2 40895   0.0328 305.3885 0000580 173.6957  12.2801  1.00272078 23785
2015-049A               
1 40899U 15049A   22073.80003648  .00006211  00000+0  30489-3 0  9998
2 40899  97.4819  78.9824 0013531 344.6808 139.7664 15.18366858358759
NUDT-PHONESAT           
1 40900U 15049B   22073.76940302  .00025421  00000+0  84977-3 0  9998
2 40900  97.4098  91.5679 0008294 257.6315 218.4524 15.30955755360102
ZDPS 2A                 
1 40901U 15049C   22073.78194328  .00012755  00000+0  56414-3 0  9991
2 40901  97.4638  83.1901 0010778 324.7571 208.4188 15.21770386359049
ZDPS 2B                 
1 40902U 15049D   22073.80809348  .00013389  00000+0  59011-3 0  9990
2 40902  97.4706  80.7679 0010623 322.8413 162.1029 15.21879602359023
XW-2A                   
1 40903U 15049E   22073.78479464  .00021212  00000+0  38665-3 0  9996
2 40903  97.1968 132.3881 0012941 106.0475  32.0825 15.49387148364580
KAITUO 1A               
1 40904U 15049F   22073.81853303  .00005127  00000+0  26178-3 0  9992
2 40904  97.4962  77.2985 0013391 347.2184 136.4204 15.17073204358512
2015-049G               
1 40905U 15049G   22073.81051017  .00004836  00000+0  25628-3 0  9990
2 40905  97.5137  74.4352 0014528 348.2090 135.1576 15.15773646358271
XW-2C                   
1 40906U 15049H   22073.78805779  .00006428  00000+0  31941-3 0  9993
2 40906  97.4943  78.0355 0013189 335.6609 197.7781 15.17931499358554
XW-2D                   
1 40907U 15049J   22073.78106891  .00007565  00000+0  37022-3 0  9992
2 40907  97.4942  77.9415 0012150 331.3119 204.6569 15.18415678358598
LILACSAT-2              
1 40908U 15049K   22073.81259439  .00004445  00000+0  24012-3 0  9993
2 40908  97.5167  75.3851 0014823 351.6475 131.4646 15.15137391358159
XW-2E                   
1 40909U 15049L   22073.77947263  .00011505  00000+0  51262-3 0  9990
2 40909  97.4679  82.2925 0010778 311.2520 222.3368 15.21545194359001
XW-2F                   
1 40910U 15049M   22073.78909584  .00010698  00000+0  48396-3 0  9993
2 40910  97.4750  81.4155 0012014 312.8028 125.7349 15.21031750358781
XW-2B                   
1 40911U 15049N   22073.79023237  .00007044  00000+0  34594-3 0  9993
2 40911  97.4914  78.5777 0012373 333.1782 151.2846 15.18317089358483
KAITUO 1B               
1 40912U 15049P   22073.77992646  .00012185  00000+0  50720-3 0  9992
2 40912  97.4423  85.7726 0011408 275.3549 170.5642 15.23838097359324
COSMOS 2507             
1 40920U 15050A   22073.72180091  .00000030  00000+0  14286-3 0  9994
2 40920  82.4967 328.0132 0009268 133.2481 226.9378 12.42886087293657
